OBJECT_NAME,OBJECT_ID,EPOCH,MEAN_MOTION,ECCENTRICITY,INCLINATION,RA_OF_ASC_NODE,ARG_OF_PERICENTER,MEAN_ANOMALY,EPHEMERIS_TYPE,CLASSIFICATION_TYPE,NORAD_CAT_ID,ELEMENT_SET_NO,REV_AT_EPOCH,BSTAR,MEAN_MOTION_DOT,MEAN_MOTION_DDOT
GLOBALSTAR M069,2007-020C,2026-07-04T00:15:16.617600,12.23471845,.00019434,51.9998,204.5094,185.4461,191.7470,0,U,31573,999,88086,.17262146E-3,-.74E-6,0
GLOBALSTAR M072,2007-020D,2026-07-04T02:28:33.722976,11.91658571,.00015901,51.9942,55.2111,12.4216,153.9122,0,U,31574,999,87699,.2482202E-3,-.66E-6,0
GLOBALSTAR M066,2007-048C,2026-07-03T11:24:59.243616,12.30387865,.00056811,51.9604,11.1533,78.4029,297.6863,0,U,32265,999,86223,-.21264591E-4,-.97E-6,0
GLOBALSTAR M079,2010-054A,2026-07-04T02:30:20.873664,12.62266405,.00010394,52.0045,57.1721,58.9556,105.6804,0,U,37188,999,72468,.91579774E-4,-.87E-6,0
GLOBALSTAR M074,2010-054B,2026-07-04T01:14:07.091808,12.62261858,.00008133,52.0027,56.5956,75.8731,88.2391,0,U,37189,999,72528,.68553462E-4,-.91E-6,0
GLOBALSTAR M076,2010-054C,2026-07-04T01:52:12.499680,12.62262034,.00010298,52.0037,56.7198,71.3395,92.9312,0,U,37190,999,72500,.10240862E-3,-.85E-6,0
GLOBALSTAR M077,2010-054D,2026-07-04T06:22:34.321728,11.67547940,.00024479,51.9939,135.9471,204.1450,304.5741,0,U,37191,999,72313,.11503522E-3,-.72E-6,0
GLOBALSTAR M075,2010-054E,2026-07-04T06:00:34.701696,12.62267685,.00005575,51.9943,98.2389,47.2767,121.4240,0,U,37192,999,72409,.21756737E-3,-.65E-6,0
GLOBALSTAR M073,2010-054F,2026-07-04T06:01:46.629696,12.62266837,.00011125,52.0074,12.3501,79.9511,90.9272,0,U,37193,999,72608,.449885E-4,-.96E-6,0
GLOBALSTAR M083,2011-033A,2026-07-04T02:32:34.194048,12.62263830,.00009234,51.9877,320.9981,92.6622,79.0510,0,U,37739,999,69508,.13276267E-3,-.8E-6,0
GLOBALSTAR M088,2011-033B,2026-07-04T01:03:30.978720,12.62269190,.00002975,52.0192,227.6563,151.7317,217.3793,0,U,37740,999,69062,.29375943E-4,-.99E-6,0
GLOBALSTAR M091,2011-033C,2026-07-04T01:31:34.921632,12.62264132,.00001289,51.9965,190.5360,352.6250,45.8572,0,U,37741,999,69141,-.84034783E-4,-.119E-5,0
GLOBALSTAR M085,2011-033D,2026-07-04T05:32:26.362752,12.62264186,.00005177,52.0109,141.3327,15.3771,123.5837,0,U,37742,999,69194,.2486555E-4,-.99E-6,0
GLOBALSTAR M081,2011-033E,2026-07-04T08:12:12.270816,12.62265309,.0000421,51.9939,143.4117,40.9861,122.1506,0,U,37743,999,69210,.24178916E-4,-.99E-6,0
GLOBALSTAR M089,2011-033F,2026-07-04T05:21:01.224576,12.62267514,.00005943,51.9928,97.9297,80.7132,82.9710,0,U,37744,999,69293,.14618038E-3,-.78E-6,0
GLOBALSTAR M084,2011-080A,2026-07-04T03:48:31.286016,12.62267743,.00010403,52.0026,325.6154,113.7367,57.8256,0,U,38040,999,67090,.77624737E-4,-.9E-6,0
GLOBALSTAR M080,2011-080B,2026-07-03T19:23:44.553120,12.62265395,.0000422,52.0081,328.4065,80.5488,67.3888,0,U,38041,999,67098,.725838E-6,-.104E-5,0
GLOBALSTAR M082,2011-080C,2026-07-03T23:41:46.176864,12.62263909,.00003573,52.0078,283.3647,111.7409,60.5993,0,U,38042,999,67171,.14667921E-3,-.77E-6,0
GLOBALSTAR M092,2011-080D,2026-07-04T06:39:47.481696,12.62267530,.00008474,52.0098,12.8780,88.8076,82.5328,0,U,38043,999,67020,.15794023E-3,-.75E-6,0
GLOBALSTAR M090,2011-080E,2026-07-04T05:13:03.666720,12.62252830,.00005358,52.0126,276.6260,105.7516,271.4525,0,U,38044,999,67186,.16687548E-3,-.74E-6,0
GLOBALSTAR M086,2011-080F,2026-07-04T05:44:09.002976,12.62287599,.00016546,51.9898,276.4614,95.7056,282.2479,0,U,38045,999,67181,.21059327E-3,-.66E-6,0
GLOBALSTAR M097,2013-005A,2026-07-04T06:24:01.525248,12.62271304,.00001915,52.0012,191.3447,42.3338,317.7543,0,U,39072,999,61906,-.57664585E-4,-.114E-5,0
GLOBALSTAR M093,2013-005B,2026-07-04T05:45:24.800832,12.62266176,.00003787,52.0072,184.7789,32.8401,327.2489,0,U,39073,999,61901,-.50063533E-4,-.113E-5,0
GLOBALSTAR M094,2013-005C,2026-07-04T03:51:10.680192,12.62268513,.00008146,51.9958,99.1202,42.4794,317.6135,0,U,39074,999,62061,.11441794E-3,-.83E-6,0
GLOBALSTAR M096,2013-005D,2026-07-04T04:10:39.088128,12.62265635,.00004683,52.0052,147.8933,19.7549,340.3336,0,U,39075,999,61953,-.13784457E-4,-.106E-5,0
GLOBALSTAR M078,2013-005E,2026-07-04T03:31:54.038208,12.62259972,.00005998,51.9853,231.9639,302.3117,57.7692,0,U,39076,999,61815,.67310924E-4,-.92E-6,0
GLOBALSTAR M095,2013-005F,2026-07-04T02:16:19.780896,12.62263933,.00001533,52.0059,229.7514,0.4726,359.6141,0,U,39077,999,61800,.75052074E-4,-.9E-6,0
GLOBALSTAR M087,2022-064A,2026-07-04T04:29:18.356064,12.62269295,.00009415,52.0011,10.6979,69.3369,290.7599,0,U,52888,999,19328,-.770672E-5,-.105E-5,0
